[{"OBJECT_NAME":"STARLINK-5376","OBJECT_ID":"2023-046BC","EPOCH":"2024-07-16T06:21:58.000896","MEAN_MOTION":15.02539002,"ECCENTRICITY":0.0001148,"INCLINATION":43.0022,"RA_OF_ASC_NODE":173.811,"ARG_OF_PERICENTER":267.9821,"MEAN_ANOMALY":92.089,"EPHEMERIS_TYPE":0,"CLASSIFICATION_TYPE":"U","NORAD_CAT_ID":56142,"ELEMENT_SET_NO":999,"REV_AT_EPOCH":7174,"BSTAR":1.2457e-5,"MEAN_MOTION_DOT":-3.5e-7,"MEAN_MOTION_DDOT":0},{"OBJECT_NAME":"STARLINK-5016","OBJECT_ID":"2023-046BD","EPOCH":"2024-07-16T05:57:59.845248","MEAN_MOTION":15.02531829,"ECCENTRICITY":0.0001313,"INCLINATION":43.0029,"RA_OF_ASC_NODE":173.686,"ARG_OF_PERICENTER":266.206,"MEAN_ANOMALY":93.8632,"EPHEMERIS_TYPE":0,"CLASSIFICATION_TYPE":"U","NORAD_CAT_ID":56143,"ELEMENT_SET_NO":999,"REV_AT_EPOCH":7228,"BSTAR":8.3499e-5,"MEAN_MOTION_DOT":9.24e-6,"MEAN_MOTION_DDOT":0},{"OBJECT_NAME":"STARLINK-5374","OBJECT_ID":"2023-046BE","EPOCH":"2024-07-17T04:37:22.408608","MEAN_MOTION":15.02533167,"ECCENTRICITY":0.0001181,"INCLINATION":43.0027,"RA_OF_ASC_NODE":168.7273,"ARG_OF_PERICENTER":270.6035,"MEAN_ANOMALY":89.4672,"EPHEMERIS_TYPE":0,"CLASSIFICATION_TYPE":"U","NORAD_CAT_ID":56144,"ELEMENT_SET_NO":999,"REV_AT_EPOCH":7242,"BSTAR":2.4144e-5,"MEAN_MOTION_DOT":1.23e-6,"MEAN_MOTION_DDOT":0},{"OBJECT_NAME":"STARLINK-5111","OBJECT_ID":"2023-046BG","EPOCH":"2024-07-17T04:21:22.864896","MEAN_MOTION":15.02537444,"ECCENTRICITY":7.17e-5,"INCLINATION":43.0021,"RA_OF_ASC_NODE":168.6437,"ARG_OF_PERICENTER":258.1567,"MEAN_ANOMALY":101.9195,"EPHEMERIS_TYPE":0,"CLASSIFICATION_TYPE":"U","NORAD_CAT_ID":56146,"ELEMENT_SET_NO":999,"REV_AT_EPOCH":7242,"BSTAR":7.649e-5,"MEAN_MOTION_DOT":8.3e-6,"MEAN_MOTION_DDOT":0},{"OBJECT_NAME":"STARLINK-5140","OBJECT_ID":"2023-046BH","EPOCH":"2024-07-17T03:45:52.384320","MEAN_MOTION":15.02552474,"ECCENTRICITY":0.000101,"INCLINATION":43.0022,"RA_OF_ASC_NODE":130.2439,"ARG_OF_PERICENTER":265.1293,"MEAN_ANOMALY":94.9434,"EPHEMERIS_TYPE":0,"CLASSIFICATION_TYPE":"U","NORAD_CAT_ID":56147,"ELEMENT_SET_NO":999,"REV_AT_EPOCH":7286,"BSTAR":6.5602e-6,"MEAN_MOTION_DOT":-1.15e-6,"MEAN_MOTION_DDOT":0},{"OBJECT_NAME":"STARLINK-5089","OBJECT_ID":"2023-046BJ","EPOCH":"2024-07-17T00:39:13.107456","MEAN_MOTION":15.02547259,"ECCENTRICITY":0.000108,"INCLINATION":43.0018,"RA_OF_ASC_NODE":130.9953,"ARG_OF_PERICENTER":275.8362,"MEAN_ANOMALY":84.2357,"EPHEMERIS_TYPE":0,"CLASSIFICATION_TYPE":"U","NORAD_CAT_ID":56148,"ELEMENT_SET_NO":999,"REV_AT_EPOCH":7284,"BSTAR":8.621e-5,"MEAN_MOTION_DOT":9.61e-6,"MEAN_MOTION_DDOT":0},{"OBJECT_NAME":"PIESAT A","OBJECT_ID":"2023-047A","EPOCH":"2024-07-16T02:52:01.311168","MEAN_MOTION":15.14287192,"ECCENTRICITY":0.0001642,"INCLINATION":97.5042,"RA_OF_ASC_NODE":24.271,"ARG_OF_PERICENTER":89.9952,"MEAN_ANOMALY":270.1468,"EPHEMERIS_TYPE":0,"CLASSIFICATION_TYPE":"U","NORAD_CAT_ID":56153,"ELEMENT_SET_NO":999,"REV_AT_EPOCH":7170,"BSTAR":5.7023e-5,"MEAN_MOTION_DOT":9.78e-6,"MEAN_MOTION_DDOT":0},{"OBJECT_NAME":"PIESAT B","OBJECT_ID":"2023-047B","EPOCH":"2024-07-15T23:41:42.910944","MEAN_MOTION":15.14285928,"ECCENTRICITY":0.0001459,"INCLINATION":97.5005,"RA_OF_ASC_NODE":24.1411,"ARG_OF_PERICENTER":112.8301,"MEAN_ANOMALY":247.3085,"EPHEMERIS_TYPE":0,"CLASSIFICATION_TYPE":"U","NORAD_CAT_ID":56154,"ELEMENT_SET_NO":999,"REV_AT_EPOCH":7168,"BSTAR":3.3304e-5,"MEAN_MOTION_DOT":5.44e-6,"MEAN_MOTION_DDOT":0},{"OBJECT_NAME":"PIESAT C","OBJECT_ID":"2023-047C","EPOCH":"2024-07-16T02:52:01.448544","MEAN_MOTION":15.14287881,"ECCENTRICITY":0.0001702,"INCLINATION":97.5023,"RA_OF_ASC_NODE":24.2719,"ARG_OF_PERICENTER":87.9506,"MEAN_ANOMALY":272.192,"EPHEMERIS_TYPE":0,"CLASSIFICATION_TYPE":"U","NORAD_CAT_ID":56155,"ELEMENT_SET_NO":999,"REV_AT_EPOCH":7170,"BSTAR":9.8383e-5,"MEAN_MOTION_DOT":1.735e-5,"MEAN_MOTION_DDOT":0},{"OBJECT_NAME":"PIESAT D","OBJECT_ID":"2023-047D","EPOCH":"2024-07-16T02:52:01.504704","MEAN_MOTION":15.14286743,"ECCENTRICITY":0.0001811,"INCLINATION":97.5017,"RA_OF_ASC_NODE":24.2731,"ARG_OF_PERICENTER":96.173,"MEAN_ANOMALY":263.9708,"EPHEMERIS_TYPE":0,"CLASSIFICATION_TYPE":"U","NORAD_CAT_ID":56156,"ELEMENT_SET_NO":999,"REV_AT_EPOCH":7170,"BSTAR":1.791e-5,"MEAN_MOTION_DOT":2.63e-6,"MEAN_MOTION_DDOT":0},{"OBJECT_NAME":"2023-048A","OBJECT_ID":"2023-048A","EPOCH":"2024-07-17T05:04:55.793568","MEAN_MOTION":13.45342082,"ECCENTRICITY":0.0047468,"INCLINATION":63.403,"RA_OF_ASC_NODE":96.1266,"ARG_OF_PERICENTER":350.967,"MEAN_ANOMALY":9.0497,"EPHEMERIS_TYPE":0,"CLASSIFICATION_TYPE":"U","NORAD_CAT_ID":56157,"ELEMENT_SET_NO":999,"REV_AT_EPOCH":6376,"BSTAR":7.7859e-5,"MEAN_MOTION_DOT":-4.4e-7,"MEAN_MOTION_DDOT":0},{"OBJECT_NAME":"CHECKMATE 8","OBJECT_ID":"2023-050A","EPOCH":"2024-07-16T22:14:26.734848","MEAN_MOTION":13.84723031,"ECCENTRICITY":0.0006952,"INCLINATION":81.0021,"RA_OF_ASC_NODE":23.2527,"ARG_OF_PERICENTER":51.1741,"MEAN_ANOMALY":309.0034,"EPHEMERIS_TYPE":0,"CLASSIFICATION_TYPE":"U","NORAD_CAT_ID":56162,"ELEMENT_SET_NO":999,"REV_AT_EPOCH":6522,"BSTAR":0.00018422,"MEAN_MOTION_DOT":2.18e-6,"MEAN_MOTION_DDOT":0},{"OBJECT_NAME":"CHECKMATE 5","OBJECT_ID":"2023-050B","EPOCH":"2024-07-16T21:49:33.864672","MEAN_MOTION":13.84765665,"ECCENTRICITY":0.0007159,"INCLINATION":81.001,"RA_OF_ASC_NODE":23.1746,"ARG_OF_PERICENTER":49.9748,"MEAN_ANOMALY":310.2035,"EPHEMERIS_TYPE":0,"CLASSIFICATION_TYPE":"U","NORAD_CAT_ID":56163,"ELEMENT_SET_NO":999,"REV_AT_EPOCH":6523,"BSTAR":0.00013525,"MEAN_MOTION_DOT":1.63e-6,"MEAN_MOTION_DDOT":0},{"OBJECT_NAME":"CHECKMATE 4","OBJECT_ID":"2023-050C","EPOCH":"2024-07-16T22:23:11.426496","MEAN_MOTION":13.84640387,"ECCENTRICITY":0.0006202,"INCLINATION":81.0015,"RA_OF_ASC_NODE":23.2233,"ARG_OF_PERICENTER":62.1813,"MEAN_ANOMALY":297.9971,"EPHEMERIS_TYPE":0,"CLASSIFICATION_TYPE":"U","NORAD_CAT_ID":56164,"ELEMENT_SET_NO":999,"REV_AT_EPOCH":6522,"BSTAR":0.00010316,"MEAN_MOTION_DOT":1.27e-6,"MEAN_MOTION_DDOT":0},{"OBJECT_NAME":"CHECKMATE 6","OBJECT_ID":"2023-050D","EPOCH":"2024-07-16T21:25:32.107008","MEAN_MOTION":13.84794019,"ECCENTRICITY":0.0006879,"INCLINATION":81.0045,"RA_OF_ASC_NODE":23.3319,"ARG_OF_PERICENTER":47.6154,"MEAN_ANOMALY":312.5583,"EPHEMERIS_TYPE":0,"CLASSIFICATION_TYPE":"U","NORAD_CAT_ID":56165,"ELEMENT_SET_NO":999,"REV_AT_EPOCH":6516,"BSTAR":8.5551e-5,"MEAN_MOTION_DOT":1.07e-6,"MEAN_MOTION_DDOT":0},{"OBJECT_NAME":"CHECKMATE 7","OBJECT_ID":"2023-050E","EPOCH":"2024-07-16T20:52:19.043904","MEAN_MOTION":13.84859754,"ECCENTRICITY":0.0007043,"INCLINATION":81.0005,"RA_OF_ASC_NODE":23.1038,"ARG_OF_PERICENTER":45.9024,"MEAN_ANOMALY":314.271,"EPHEMERIS_TYPE":0,"CLASSIFICATION_TYPE":"U","NORAD_CAT_ID":56166,"ELEMENT_SET_NO":999,"REV_AT_EPOCH":6516,"BSTAR":7.7624e-5,"MEAN_MOTION_DOT":9.9e-7,"MEAN_MOTION_DDOT":0},{"OBJECT_NAME":"CHECKMATE 2","OBJECT_ID":"2023-050F","EPOCH":"2024-07-17T05:17:49.305984","MEAN_MOTION":13.84914715,"ECCENTRICITY":0.0007594,"INCLINATION":81.0045,"RA_OF_ASC_NODE":22.9379,"ARG_OF_PERICENTER":45.2958,"MEAN_ANOMALY":314.8815,"EPHEMERIS_TYPE":0,"CLASSIFICATION_TYPE":"U","NORAD_CAT_ID":56167,"ELEMENT_SET_NO":999,"REV_AT_EPOCH":6521,"BSTAR":0.00016091,"MEAN_MOTION_DOT":1.93e-6,"MEAN_MOTION_DDOT":0},{"OBJECT_NAME":"CHECKMATE 1","OBJECT_ID":"2023-050G","EPOCH":"2024-07-16T21:27:38.253600","MEAN_MOTION":13.84765848,"ECCENTRICITY":0.0011821,"INCLINATION":81.0044,"RA_OF_ASC_NODE":23.3253,"ARG_OF_PERICENTER":73.8244,"MEAN_ANOMALY":286.4212,"EPHEMERIS_TYPE":0,"CLASSIFICATION_TYPE":"U","NORAD_CAT_ID":56168,"ELEMENT_SET_NO":999,"REV_AT_EPOCH":6516,"BSTAR":8.6191e-5,"MEAN_MOTION_DOT":1.08e-6,"MEAN_MOTION_DDOT":0},{"OBJECT_NAME":"CHECKMATE 3","OBJECT_ID":"2023-050H","EPOCH":"2024-07-16T21:40:48.667584","MEAN_MOTION":13.84977558,"ECCENTRICITY":0.0007257,"INCLINATION":81.0029,"RA_OF_ASC_NODE":23.1039,"ARG_OF_PERICENTER":41.5812,"MEAN_ANOMALY":318.5895,"EPHEMERIS_TYPE":0,"CLASSIFICATION_TYPE":"U","NORAD_CAT_ID":56169,"ELEMENT_SET_NO":999,"REV_AT_EPOCH":6517,"BSTAR":0.00010254,"MEAN_MOTION_DOT":1.27e-6,"MEAN_MOTION_DDOT":0},{"OBJECT_NAME":"BB 2","OBJECT_ID":"2023-050J","EPOCH":"2024-07-17T05:28:41.505888","MEAN_MOTION":13.79353388,"ECCENTRICITY":0.0010168,"INCLINATION":81.0022,"RA_OF_ASC_NODE":26.7174,"ARG_OF_PERICENTER":15.2887,"MEAN_ANOMALY":344.8571,"EPHEMERIS_TYPE":0,"CLASSIFICATION_TYPE":"U","NORAD_CAT_ID":56170,"ELEMENT_SET_NO":999,"REV_AT_EPOCH":6497,"BSTAR":0.00014668,"MEAN_MOTION_DOT":1.61e-6,"MEAN_MOTION_DDOT":0},{"OBJECT_NAME":"BB 1","OBJECT_ID":"2023-050K","EPOCH":"2024-07-16T22:36:25.932384","MEAN_MOTION":13.79346726,"ECCENTRICITY":0.0015728,"INCLINATION":81.0025,"RA_OF_ASC_NODE":26.8278,"ARG_OF_PERICENTER":17.0783,"MEAN_ANOMALY":343.0896,"EPHEMERIS_TYPE":0,"CLASSIFICATION_TYPE":"U","NORAD_CAT_ID":56171,"ELEMENT_SET_NO":999,"REV_AT_EPOCH":6494,"BSTAR":0.00027482,"MEAN_MOTION_DOT":2.93e-6,"MEAN_MOTION_DDOT":0},{"OBJECT_NAME":"INTELSAT 40E (IS-40E)","OBJECT_ID":"2023-052A","EPOCH":"2024-07-17T01:10:21.294048","MEAN_MOTION":1.00269505,"ECCENTRICITY":0.0002294,"INCLINATION":0.024,"RA_OF_ASC_NODE":67.2669,"ARG_OF_PERICENTER":69.9773,"MEAN_ANOMALY":84.6983,"EPHEMERIS_TYPE":0,"CLASSIFICATION_TYPE":"U","NORAD_CAT_ID":56174,"ELEMENT_SET_NO":999,"REV_AT_EPOCH":481,"BSTAR":0,"MEAN_MOTION_DOT":-1.56e-6,"MEAN_MOTION_DDOT":0},{"OBJECT_NAME":"IMECE","OBJECT_ID":"2023-054A","EPOCH":"2024-07-17T05:15:51.602400","MEAN_MOTION":14.66150068,"ECCENTRICITY":0.0007189,"INCLINATION":98.1713,"RA_OF_ASC_NODE":98.8454,"ARG_OF_PERICENTER":200.3617,"MEAN_ANOMALY":159.7301,"EPHEMERIS_TYPE":0,"CLASSIFICATION_TYPE":"U","NORAD_CAT_ID":56178,"ELEMENT_SET_NO":999,"REV_AT_EPOCH":6786,"BSTAR":0.00015372,"MEAN_MOTION_DOT":7.97e-6,"MEAN_MOTION_DDOT":0},{"OBJECT_NAME":"ORBASTRO-AF 1","OBJECT_ID":"2023-054B","EPOCH":"2024-07-17T03:53:39.158592","MEAN_MOTION":15.32209645,"ECCENTRICITY":0.0008927,"INCLINATION":97.3587,"RA_OF_ASC_NODE":94.1534,"ARG_OF_PERICENTER":84.5187,"MEAN_ANOMALY":275.7073,"EPHEMERIS_TYPE":0,"CLASSIFICATION_TYPE":"U","NORAD_CAT_ID":56179,"ELEMENT_SET_NO":999,"REV_AT_EPOCH":7057,"BSTAR":0.00059749,"MEAN_MOTION_DOT":0.0001855,"MEAN_MOTION_DDOT":0}]
